OBJECT_NAME,OBJECT_ID,EPOCH,MEAN_MOTION,ECCENTRICITY,INCLINATION,RA_OF_ASC_NODE,ARG_OF_PERICENTER,MEAN_ANOMALY,EPHEMERIS_TYPE,CLASSIFICATION_TYPE,NORAD_CAT_ID,ELEMENT_SET_NO,REV_AT_EPOCH,BSTAR,MEAN_MOTION_DOT,MEAN_MOTION_DDOT
SL-8 R/B,1985-006B,2026-06-16T04:33:48.409632,14.37834684,.00188516,74.0460,79.8989,327.1697,142.8590,0,U,15483,999,16818,.6910717E-4,.182E-5,0
SL-12 R/B(2),1985-042D,2026-06-16T07:38:25.464192,14.22005818,.00362947,71.1079,239.3520,329.0534,93.7000,0,U,15772,999,12841,.77105491E-4,.124E-5,0
SL-14 R/B,1985-069B,2026-06-16T02:12:44.720064,14.86514833,.00177163,82.5269,292.3957,222.9977,136.9856,0,U,15945,999,18745,.41182147E-4,.39E-5,0
SL-16 R/B,1985-097B,2026-06-16T02:08:21.212160,14.16610266,.00054064,71.0033,293.3897,113.8682,59.1622,0,U,16182,999,10116,-.65870989E-4,-.179E-5,0
SL-14 R/B,1986-006B,2026-06-16T02:37:35.622912,14.86944775,.0075015,82.5261,167.1276,307.1124,52.3253,0,U,16496,999,16383,.49238185E-4,.489E-5,0
COSMOS 1743,1986-034A,2026-06-16T04:31:53.419872,15.66864324,.00038636,82.5276,329.7931,275.5236,84.5583,0,U,16719,999,19563,.39198967E-3,.41568E-3,0
SL-14 R/B,1986-046B,2026-06-16T05:02:21.224832,14.85670426,.00215886,82.4815,347.0989,261.9373,97.9394,0,U,16792,999,14103,.34307877E-4,.322E-5,0
SL-14 R/B,1986-055B,2026-06-16T00:16:09.241248,14.85722474,.00191785,82.5205,34.2387,11.5177,108.3903,0,U,16882,999,13396,.36995962E-4,.346E-5,0
AJISAI (EGS),1986-061A,2026-06-16T06:12:49.119840,12.44516854,.00112205,50.0066,150.2493,178.2599,281.6994,0,U,16908,999,48027,-.77240303E-4,-.108E-5,0
SL-14 R/B,1987-024B,2026-06-16T06:35:52.744992,14.86212683,.00168433,82.5279,0.1082,296.5326,63.4163,0,U,17567,999,10277,.35284704E-4,.335E-5,0
COSMOS 1833,1987-027A,2026-06-16T06:12:42.071328,14.13049316,.0022768,70.9177,118.8194,56.6638,303.6659,0,U,17589,999,2424,.19452046E-3,.316E-5,0
SL-16 R/B,1987-027B,2026-06-16T03:46:35.660352,14.17171971,.00064934,71.0033,68.9988,313.3858,46.6724,0,U,17590,999,2929,-.83996532E-4,-.217E-5,0
SL-14 R/B,1987-038B,2026-06-16T04:27:37.128960,14.85444714,.00187977,82.5009,204.0155,194.5123,165.5556,0,U,17912,999,9385,.32226909E-4,.303E-5,0
COSMOS 1844,1987-041A,2026-06-16T07:54:08.613504,14.14568046,.00329418,70.8970,186.1170,236.8432,122.9529,0,U,17973,999,1753,-.62916364E-4,-.17E-5,0
SL-14 R/B,1987-055B,2026-06-16T06:43:30.833472,14.85710636,.0021765,82.4996,256.0840,50.5247,309.7890,0,U,18153,999,8457,.36401888E-4,.342E-5,0
COSMOS 1867,1987-060A,2026-06-16T00:22:15.031200,14.31515670,.00165078,65.0116,31.3402,282.1602,77.7633,0,U,18187,999,3401,.17639409E-4,-.53E-6,0
SL-14 R/B,1988-001B,2026-06-16T06:46:18.501312,14.85609044,.00164356,82.5132,102.6250,272.8465,87.0870,0,U,18749,999,5666,.37829671E-4,.352E-5,0
COSMOS 1933,1988-020A,2026-06-16T01:10:51.600576,15.18706335,.00034264,82.5119,153.5619,188.7096,171.4079,0,U,18958,999,6515,.1586809E-3,.3322E-4,0
SL-3 R/B,1988-032B,2026-06-16T06:08:55.019904,15.20834690,.00237758,97.5255,150.2977,248.5039,111.3661,0,U,19046,999,6708,.1546411E-3,.3365E-4,0
SL-16 R/B,1988-039B,2026-06-16T06:36:27.002592,14.19629454,.00223257,71.0139,220.0864,194.5541,165.4944,0,U,19120,999,97237,.4655533E-5,-.38E-6,0
COSMOS 1953,1988-050A,2026-06-16T04:02:39.105024,15.29967574,.00120472,82.5081,59.0620,129.4225,230.8084,0,U,19210,999,5283,.23286131E-3,.6801E-4,0
SL-8 R/B,1988-053B,2026-06-16T02:57:39.693312,14.38967057,.00191556,74.0480,291.0182,86.7314,86.1607,0,U,19257,999,99075,.55667177E-4,.146E-5,0
COSMOS 1975,1988-093A,2026-06-16T07:17:23.012448,15.29316429,.00112447,82.5187,18.5908,174.5437,185.5928,0,U,19573,999,3447,.19360144E-3,.5546E-4,0
SL-14 R/B,1988-093B,2026-06-16T03:34:07.982400,14.85741166,.00220972,82.5310,309.6197,73.6492,99.3066,0,U,19574,999,1563,.39685934E-4,.371E-5,0
SL-16 R/B,1988-102B,2026-06-16T02:05:16.941696,14.16164486,.00158478,71.0000,304.4540,226.9407,133.0391,0,U,19650,999,94082,-.81769849E-4,-.21E-5,0
INTERCOSMOS 24,1989-080A,2026-06-16T03:25:44.459616,12.59660583,.11883779,82.6066,40.3245,64.3255,307.5684,0,U,20261,999,67919,.23348111E-3,.823E-5,0
SL-14 R/B,1989-080C,2026-06-16T06:46:34.310784,12.50570270,.12287947,82.5932,109.8890,319.4726,32.0846,0,U,20262,999,67247,.74796124E-4,.25E-5,0
DELTA 1 R/B,1989-089B,2026-06-16T06:05:16.214496,14.50730857,.00691759,97.0635,358.9613,169.9179,190.3426,0,U,20323,999,91002,.73485271E-4,.263E-5,0
ARIANE 40 R/B,1990-005H,2026-06-16T00:03:24.609888,14.39926835,.0008804,98.2960,224.6552,268.4640,91.5540,0,U,20443,999,90695,.8068861E-4,.211E-5,0
DELTA 2 R/B(1),1990-008B,2026-06-15T22:01:31.200672,15.68645393,.0065185,35.5995,244.1514,102.3413,258.4633,0,U,20453,999,94150,.50863E-3,.68207E-3,0
