{
  "version": 1,
  "fetchedAt": "2026-06-16T16:59:36.124Z",
  "source": "celestrak-gp",
  "counts": {
    "station": 25,
    "satellite": 400,
    "debris": 250
  },
  "objects": [
    {
      "id": "15483",
      "name": "SL-8 R/B",
      "noradId": 15483,
      "line1": "1 15483U 85006B   26167.19014363  .00000182  00000+0  69107-4 0  9996",
      "line2": "2 15483  74.0460  79.8989 0018851 327.1697 142.8590 14.37834684168183",
      "category": "satellite"
    },
    {
      "id": "15772",
      "name": "SL-12 R/B(2)",
      "noradId": 15772,
      "line1": "1 15772U 85042D   26167.31835028  .00000124  00000+0  77105-4 0  9993",
      "line2": "2 15772  71.1079 239.3520 0036294 329.0534  93.7000 14.22005818128419",
      "category": "satellite"
    },
    {
      "id": "15945",
      "name": "SL-14 R/B",
      "noradId": 15945,
      "line1": "1 15945U 85069B   26167.09218426  .00000390  00000+0  41182-4 0  9997",
      "line2": "2 15945  82.5269 292.3957 0017716 222.9977 136.9856 14.86514833187451",
      "category": "satellite"
    },
    {
      "id": "16182",
      "name": "SL-16 R/B",
      "noradId": 16182,
      "line1": "1 16182U 85097B   26167.08913440 -.00000179  00000+0 -65871-4 0  9997",
      "line2": "2 16182  71.0033 293.3897 0005406 113.8682  59.1622 14.16610266101166",
      "category": "satellite"
    },
    {
      "id": "16496",
      "name": "SL-14 R/B",
      "noradId": 16496,
      "line1": "1 16496U 86006B   26167.10944008  .00000489  00000+0  49238-4 0  9994",
      "line2": "2 16496  82.5261 167.1276 0075015 307.1124  52.3253 14.86944775163834",
      "category": "satellite"
    },
    {
      "id": "16719",
      "name": "COSMOS 1743",
      "noradId": 16719,
      "line1": "1 16719U 86034A   26167.18881273  .00041568  00000+0  39199-3 0  9992",
      "line2": "2 16719  82.5276 329.7931 0003863 275.5236  84.5583 15.66864324195632",
      "category": "satellite"
    },
    {
      "id": "16792",
      "name": "SL-14 R/B",
      "noradId": 16792,
      "line1": "1 16792U 86046B   26167.20996788  .00000322  00000+0  34308-4 0  9998",
      "line2": "2 16792  82.4815 347.0989 0021588 261.9373  97.9394 14.85670426141033",
      "category": "satellite"
    },
    {
      "id": "16882",
      "name": "SL-14 R/B",
      "noradId": 16882,
      "line1": "1 16882U 86055B   26167.01121807  .00000346  00000+0  36996-4 0  9990",
      "line2": "2 16882  82.5205  34.2387 0019178  11.5177 108.3903 14.85722474133964",
      "category": "satellite"
    },
    {
      "id": "16908",
      "name": "AJISAI (EGS)",
      "noradId": 16908,
      "line1": "1 16908U 86061A   26167.25890185 -.00000108  00000+0 -77240-4 0  9999",
      "line2": "2 16908  50.0066 150.2493 0011220 178.2599 281.6994 12.44516854480274",
      "category": "satellite"
    },
    {
      "id": "17567",
      "name": "SL-14 R/B",
      "noradId": 17567,
      "line1": "1 17567U 87024B   26167.27491603  .00000335  00000+0  35285-4 0  9998",
      "line2": "2 17567  82.5279   0.1082 0016843 296.5326  63.4163 14.86212683102778",
      "category": "satellite"
    },
    {
      "id": "17589",
      "name": "COSMOS 1833",
      "noradId": 17589,
      "line1": "1 17589U 87027A   26167.25882027  .00000316  00000+0  19452-3 0  9993",
      "line2": "2 17589  70.9177 118.8194 0022768  56.6638 303.6659 14.13049316 24240",
      "category": "satellite"
    },
    {
      "id": "17590",
      "name": "SL-16 R/B",
      "noradId": 17590,
      "line1": "1 17590U 87027B   26167.15735718 -.00000217  00000+0 -83997-4 0  9996",
      "line2": "2 17590  71.0033  68.9988 0006493 313.3858  46.6724 14.17171971 29299",
      "category": "satellite"
    },
    {
      "id": "17912",
      "name": "SL-14 R/B",
      "noradId": 17912,
      "line1": "1 17912U 87038B   26167.18584640  .00000303  00000+0  32227-4 0  9999",
      "line2": "2 17912  82.5009 204.0155 0018797 194.5123 165.5556 14.85444714 93850",
      "category": "satellite"
    },
    {
      "id": "17973",
      "name": "COSMOS 1844",
      "noradId": 17973,
      "line1": "1 17973U 87041A   26167.32926636 -.00000170  00000+0 -62916-4 0  9993",
      "line2": "2 17973  70.8970 186.1170 0032941 236.8432 122.9529 14.14568046 17536",
      "category": "satellite"
    },
    {
      "id": "18153",
      "name": "SL-14 R/B",
      "noradId": 18153,
      "line1": "1 18153U 87055B   26167.28021798  .00000342  00000+0  36402-4 0  9999",
      "line2": "2 18153  82.4996 256.0840 0021765  50.5247 309.7890 14.85710636 84578",
      "category": "satellite"
    },
    {
      "id": "18187",
      "name": "COSMOS 1867",
      "noradId": 18187,
      "line1": "1 18187U 87060A   26167.01545175 -.00000053  00000+0  17639-4 0  9994",
      "line2": "2 18187  65.0116  31.3402 0016507 282.1602  77.7633 14.31515670 34013",
      "category": "satellite"
    },
    {
      "id": "18749",
      "name": "SL-14 R/B",
      "noradId": 18749,
      "line1": "1 18749U 88001B   26167.28215858  .00000352  00000+0  37830-4 0  9991",
      "line2": "2 18749  82.5132 102.6250 0016435 272.8465  87.0870 14.85609044 56665",
      "category": "satellite"
    },
    {
      "id": "18958",
      "name": "COSMOS 1933",
      "noradId": 18958,
      "line1": "1 18958U 88020A   26167.04920834  .00003322  00000+0  15868-3 0  9991",
      "line2": "2 18958  82.5119 153.5619 0003426 188.7096 171.4079 15.18706335 65158",
      "category": "satellite"
    },
    {
      "id": "19046",
      "name": "SL-3 R/B",
      "noradId": 19046,
      "line1": "1 19046U 88032B   26167.25619236  .00003365  00000+0  15464-3 0  9996",
      "line2": "2 19046  97.5255 150.2977 0023775 248.5039 111.3661 15.20834690 67089",
      "category": "satellite"
    },
    {
      "id": "19120",
      "name": "SL-16 R/B",
      "noradId": 19120,
      "line1": "1 19120U 88039B   26167.27531253 -.00000038  00000+0  46555-5 0  9992",
      "line2": "2 19120  71.0139 220.0864 0022325 194.5541 165.4944 14.19629454972377",
      "category": "satellite"
    },
    {
      "id": "19210",
      "name": "COSMOS 1953",
      "noradId": 19210,
      "line1": "1 19210U 88050A   26167.16850816  .00006801  00000+0  23286-3 0  9999",
      "line2": "2 19210  82.5081  59.0620 0012047 129.4225 230.8084 15.29967574 52838",
      "category": "satellite"
    },
    {
      "id": "19257",
      "name": "SL-8 R/B",
      "noradId": 19257,
      "line1": "1 19257U 88053B   26167.12337608  .00000146  00000+0  55667-4 0  9993",
      "line2": "2 19257  74.0480 291.0182 0019155  86.7314  86.1607 14.38967057990750",
      "category": "satellite"
    },
    {
      "id": "19573",
      "name": "COSMOS 1975",
      "noradId": 19573,
      "line1": "1 19573U 88093A   26167.30373857  .00005546  00000+0  19360-3 0  9992",
      "line2": "2 19573  82.5187  18.5908 0011244 174.5437 185.5928 15.29316429 34470",
      "category": "satellite"
    },
    {
      "id": "19574",
      "name": "SL-14 R/B",
      "noradId": 19574,
      "line1": "1 19574U 88093B   26167.14870350  .00000371  00000+0  39686-4 0  9990",
      "line2": "2 19574  82.5310 309.6197 0022097  73.6492  99.3066 14.85741166 15634",
      "category": "satellite"
    },
    {
      "id": "19650",
      "name": "SL-16 R/B",
      "noradId": 19650,
      "line1": "1 19650U 88102B   26167.08700164 -.00000210  00000+0 -81770-4 0  9999",
      "line2": "2 19650  71.0000 304.4540 0015847 226.9407 133.0391 14.16164486940820",
      "category": "satellite"
    },
    {
      "id": "20261",
      "name": "INTERCOSMOS 24",
      "noradId": 20261,
      "line1": "1 20261U 89080A   26167.14287569  .00000823  00000+0  23348-3 0  9995",
      "line2": "2 20261  82.6066  40.3245 1188377  64.3255 307.5684 12.59660583679199",
      "category": "satellite"
    },
    {
      "id": "20262",
      "name": "SL-14 R/B",
      "noradId": 20262,
      "line1": "1 20262U 89080C   26167.28234156  .00000250  00000+0  74796-4 0  9993",
      "line2": "2 20262  82.5932 109.8890 1228794 319.4726  32.0846 12.50570270672471",
      "category": "satellite"
    },
    {
      "id": "20323",
      "name": "DELTA 1 R/B",
      "noradId": 20323,
      "line1": "1 20323U 89089B   26167.25365989  .00000263  00000+0  73485-4 0  9994",
      "line2": "2 20323  97.0635 358.9613 0069175 169.9179 190.3426 14.50730857910024",
      "category": "satellite"
    },
    {
      "id": "20443",
      "name": "ARIANE 40 R/B",
      "noradId": 20443,
      "line1": "1 20443U 90005H   26167.00236817  .00000211  00000+0  80689-4 0  9994",
      "line2": "2 20443  98.2960 224.6552 0008804 268.4640  91.5540 14.39926835906958",
      "category": "satellite"
    },
    {
      "id": "20453",
      "name": "DELTA 2 R/B(1)",
      "noradId": 20453,
      "line1": "1 20453U 90008B   26166.91772223  .00068207  00000+0  50863-3 0  9992",
      "line2": "2 20453  35.5995 244.1514 0065185 102.3413 258.4633 15.68645393941502",
      "category": "satellite"
    }
  ]
}